[{"OBJECT_NAME":"STARLINK-30540","OBJECT_ID":"2023-153M","EPOCH":"2025-12-12T21:16:29.667072","MEAN_MOTION":15.02533669,"ECCENTRICITY":0.00010112,"INCLINATION":43.0016,"RA_OF_ASC_NODE":180.8475,"ARG_OF_PERICENTER":248.3932,"MEAN_ANOMALY":111.6802,"EPHEMERIS_TYPE":0,"CLASSIFICATION_TYPE":"U","NORAD_CAT_ID":58002,"ELEMENT_SET_NO":999,"REV_AT_EPOCH":12171,"BSTAR":4.0193332e-5,"MEAN_MOTION_DOT":3.39e-6,"MEAN_MOTION_DDOT":0},{"OBJECT_NAME":"STARLINK-30546","OBJECT_ID":"2023-153N","EPOCH":"2025-12-13T05:53:20.244480","MEAN_MOTION":15.02530974,"ECCENTRICITY":9.962e-5,"INCLINATION":43.0015,"RA_OF_ASC_NODE":178.3969,"ARG_OF_PERICENTER":274.7522,"MEAN_ANOMALY":85.3207,"EPHEMERIS_TYPE":0,"CLASSIFICATION_TYPE":"U","NORAD_CAT_ID":58003,"ELEMENT_SET_NO":999,"REV_AT_EPOCH":12187,"BSTAR":-2.5682911e-5,"MEAN_MOTION_DOT":-5.5e-6,"MEAN_MOTION_DDOT":0},{"OBJECT_NAME":"STARLINK-30539","OBJECT_ID":"2023-153P","EPOCH":"2025-12-13T05:48:31.970016","MEAN_MOTION":15.02545317,"ECCENTRICITY":0.00011433,"INCLINATION":43.0025,"RA_OF_ASC_NODE":178.3768,"ARG_OF_PERICENTER":270.5755,"MEAN_ANOMALY":89.4956,"EPHEMERIS_TYPE":0,"CLASSIFICATION_TYPE":"U","NORAD_CAT_ID":58004,"ELEMENT_SET_NO":999,"REV_AT_EPOCH":12187,"BSTAR":6.9040351e-5,"MEAN_MOTION_DOT":7.29e-6,"MEAN_MOTION_DDOT":0},{"OBJECT_NAME":"STARLINK-30530","OBJECT_ID":"2023-153Q","EPOCH":"2025-12-13T05:38:56.235840","MEAN_MOTION":15.02528188,"ECCENTRICITY":0.00011807,"INCLINATION":43.0028,"RA_OF_ASC_NODE":178.3208,"ARG_OF_PERICENTER":273.2909,"MEAN_ANOMALY":86.7798,"EPHEMERIS_TYPE":0,"CLASSIFICATION_TYPE":"U","NORAD_CAT_ID":58005,"ELEMENT_SET_NO":999,"REV_AT_EPOCH":12187,"BSTAR":-0.0001447261,"MEAN_MOTION_DOT":-2.158e-5,"MEAN_MOTION_DDOT":0},{"OBJECT_NAME":"STARLINK-30526","OBJECT_ID":"2023-153R","EPOCH":"2025-12-13T04:23:18.026592","MEAN_MOTION":15.02532486,"ECCENTRICITY":0.00013597,"INCLINATION":43.0031,"RA_OF_ASC_NODE":153.5978,"ARG_OF_PERICENTER":269.3617,"MEAN_ANOMALY":90.7069,"EPHEMERIS_TYPE":0,"CLASSIFICATION_TYPE":"U","NORAD_CAT_ID":58006,"ELEMENT_SET_NO":999,"REV_AT_EPOCH":12215,"BSTAR":-0.00013585251,"MEAN_MOTION_DOT":-2.038e-5,"MEAN_MOTION_DDOT":0},{"OBJECT_NAME":"STARLINK-30527","OBJECT_ID":"2023-153S","EPOCH":"2025-12-12T16:28:26.523840","MEAN_MOTION":15.27551929,"ECCENTRICITY":0.00015428,"INCLINATION":43.0068,"RA_OF_ASC_NODE":329.7319,"ARG_OF_PERICENTER":272.046,"MEAN_ANOMALY":88.0215,"EPHEMERIS_TYPE":0,"CLASSIFICATION_TYPE":"U","NORAD_CAT_ID":58007,"ELEMENT_SET_NO":999,"REV_AT_EPOCH":12415,"BSTAR":2.5107739e-5,"MEAN_MOTION_DOT":4.28e-6,"MEAN_MOTION_DDOT":0},{"OBJECT_NAME":"STARLINK-30522","OBJECT_ID":"2023-153T","EPOCH":"2025-12-12T20:38:08.149056","MEAN_MOTION":15.02535167,"ECCENTRICITY":0.0001117,"INCLINATION":43.0022,"RA_OF_ASC_NODE":180.6595,"ARG_OF_PERICENTER":266.3784,"MEAN_ANOMALY":93.6931,"EPHEMERIS_TYPE":0,"CLASSIFICATION_TYPE":"U","NORAD_CAT_ID":58008,"ELEMENT_SET_NO":999,"REV_AT_EPOCH":12181,"BSTAR":7.2106824e-5,"MEAN_MOTION_DOT":7.71e-6,"MEAN_MOTION_DDOT":0},{"OBJECT_NAME":"STARLINK-30486","OBJECT_ID":"2023-153U","EPOCH":"2025-12-13T05:43:45.614496","MEAN_MOTION":15.02531198,"ECCENTRICITY":0.00011504,"INCLINATION":43.0017,"RA_OF_ASC_NODE":178.3433,"ARG_OF_PERICENTER":269.2541,"MEAN_ANOMALY":90.8169,"EPHEMERIS_TYPE":0,"CLASSIFICATION_TYPE":"U","NORAD_CAT_ID":58009,"ELEMENT_SET_NO":999,"REV_AT_EPOCH":12177,"BSTAR":-8.3178293e-5,"MEAN_MOTION_DOT":-1.327e-5,"MEAN_MOTION_DDOT":0},{"OBJECT_NAME":"STARLINK-30520","OBJECT_ID":"2023-153V","EPOCH":"2025-12-13T05:29:31.820064","MEAN_MOTION":15.0252631,"ECCENTRICITY":0.00013557,"INCLINATION":43.0034,"RA_OF_ASC_NODE":179.1164,"ARG_OF_PERICENTER":263.3366,"MEAN_ANOMALY":96.7322,"EPHEMERIS_TYPE":0,"CLASSIFICATION_TYPE":"U","NORAD_CAT_ID":58010,"ELEMENT_SET_NO":999,"REV_AT_EPOCH":12176,"BSTAR":-4.5081998e-5,"MEAN_MOTION_DOT":-8.12e-6,"MEAN_MOTION_DDOT":0},{"OBJECT_NAME":"STARLINK-30497","OBJECT_ID":"2023-153W","EPOCH":"2025-12-13T05:24:44.827776","MEAN_MOTION":15.02519473,"ECCENTRICITY":6.733e-5,"INCLINATION":43.0031,"RA_OF_ASC_NODE":179.0898,"ARG_OF_PERICENTER":304.2912,"MEAN_ANOMALY":55.7867,"EPHEMERIS_TYPE":0,"CLASSIFICATION_TYPE":"U","NORAD_CAT_ID":58011,"ELEMENT_SET_NO":999,"REV_AT_EPOCH":12186,"BSTAR":0.0001809032,"MEAN_MOTION_DOT":2.24e-5,"MEAN_MOTION_DDOT":0},{"OBJECT_NAME":"STARLINK-30525","OBJECT_ID":"2023-153X","EPOCH":"2025-12-12T21:11:42.671328","MEAN_MOTION":15.02528517,"ECCENTRICITY":0.00010319,"INCLINATION":43.0015,"RA_OF_ASC_NODE":180.8206,"ARG_OF_PERICENTER":263.9849,"MEAN_ANOMALY":96.0876,"EPHEMERIS_TYPE":0,"CLASSIFICATION_TYPE":"U","NORAD_CAT_ID":58012,"ELEMENT_SET_NO":999,"REV_AT_EPOCH":12181,"BSTAR":-4.1621441e-5,"MEAN_MOTION_DOT":-7.66e-6,"MEAN_MOTION_DDOT":0},{"OBJECT_NAME":"STARLINK-30514","OBJECT_ID":"2023-156A","EPOCH":"2025-12-13T02:43:20.003808","MEAN_MOTION":15.30220946,"ECCENTRICITY":0.00013943,"INCLINATION":53.1601,"RA_OF_ASC_NODE":120.3116,"ARG_OF_PERICENTER":63.6454,"MEAN_ANOMALY":296.469,"EPHEMERIS_TYPE":0,"CLASSIFICATION_TYPE":"U","NORAD_CAT_ID":58028,"ELEMENT_SET_NO":999,"REV_AT_EPOCH":12306,"BSTAR":0.00042986301,"MEAN_MOTION_DOT":0.00012402,"MEAN_MOTION_DDOT":0},{"OBJECT_NAME":"STARLINK-30518","OBJECT_ID":"2023-156B","EPOCH":"2025-12-12T19:06:42.932736","MEAN_MOTION":15.30201136,"ECCENTRICITY":8.575e-5,"INCLINATION":53.1593,"RA_OF_ASC_NODE":121.894,"ARG_OF_PERICENTER":44.8089,"MEAN_ANOMALY":315.2981,"EPHEMERIS_TYPE":0,"CLASSIFICATION_TYPE":"U","NORAD_CAT_ID":58029,"ELEMENT_SET_NO":999,"REV_AT_EPOCH":12301,"BSTAR":0.0001547476,"MEAN_MOTION_DOT":4.227e-5,"MEAN_MOTION_DDOT":0},{"OBJECT_NAME":"STARLINK-30549","OBJECT_ID":"2023-156C","EPOCH":"2025-12-13T02:00:47.677824","MEAN_MOTION":15.30256317,"ECCENTRICITY":0.00011394,"INCLINATION":53.1605,"RA_OF_ASC_NODE":120.6584,"ARG_OF_PERICENTER":79.9309,"MEAN_ANOMALY":280.182,"EPHEMERIS_TYPE":0,"CLASSIFICATION_TYPE":"U","NORAD_CAT_ID":58030,"ELEMENT_SET_NO":999,"REV_AT_EPOCH":12300,"BSTAR":0.00029013089,"MEAN_MOTION_DOT":8.258e-5,"MEAN_MOTION_DDOT":0},{"OBJECT_NAME":"STARLINK-30556","OBJECT_ID":"2023-156D","EPOCH":"2025-12-13T02:26:34.041696","MEAN_MOTION":15.30194947,"ECCENTRICITY":0.00012091,"INCLINATION":53.161,"RA_OF_ASC_NODE":130.5895,"ARG_OF_PERICENTER":87.3555,"MEAN_ANOMALY":272.7584,"EPHEMERIS_TYPE":0,"CLASSIFICATION_TYPE":"U","NORAD_CAT_ID":58031,"ELEMENT_SET_NO":999,"REV_AT_EPOCH":12290,"BSTAR":2.5555404e-5,"MEAN_MOTION_DOT":3.98e-6,"MEAN_MOTION_DDOT":0},{"OBJECT_NAME":"STARLINK-30561","OBJECT_ID":"2023-156E","EPOCH":"2025-12-12T16:45:41.671008","MEAN_MOTION":15.30185065,"ECCENTRICITY":8.79e-5,"INCLINATION":53.1607,"RA_OF_ASC_NODE":122.5186,"ARG_OF_PERICENTER":91.257,"MEAN_ANOMALY":268.8532,"EPHEMERIS_TYPE":0,"CLASSIFICATION_TYPE":"U","NORAD_CAT_ID":58032,"ELEMENT_SET_NO":999,"REV_AT_EPOCH":12299,"BSTAR":-6.199643e-6,"MEAN_MOTION_DOT":-5.42e-6,"MEAN_MOTION_DDOT":0},{"OBJECT_NAME":"STARLINK-30562","OBJECT_ID":"2023-156F","EPOCH":"2025-12-12T22:20:26.251296","MEAN_MOTION":15.3019282,"ECCENTRICITY":0.00014473,"INCLINATION":53.1599,"RA_OF_ASC_NODE":210.884,"ARG_OF_PERICENTER":104.5249,"MEAN_ANOMALY":255.5913,"EPHEMERIS_TYPE":0,"CLASSIFICATION_TYPE":"U","NORAD_CAT_ID":58033,"ELEMENT_SET_NO":999,"REV_AT_EPOCH":12175,"BSTAR":3.5116034e-5,"MEAN_MOTION_DOT":6.81e-6,"MEAN_MOTION_DDOT":0},{"OBJECT_NAME":"STARLINK-30565","OBJECT_ID":"2023-156G","EPOCH":"2025-12-13T02:13:02.242848","MEAN_MOTION":15.30205177,"ECCENTRICITY":9.697e-5,"INCLINATION":53.1604,"RA_OF_ASC_NODE":120.7168,"ARG_OF_PERICENTER":100.7418,"MEAN_ANOMALY":259.3692,"EPHEMERIS_TYPE":0,"CLASSIFICATION_TYPE":"U","NORAD_CAT_ID":58034,"ELEMENT_SET_NO":999,"REV_AT_EPOCH":12305,"BSTAR":-0.00014672665,"MEAN_MOTION_DOT":-4.703e-5,"MEAN_MOTION_DDOT":0},{"OBJECT_NAME":"STARLINK-30438","OBJECT_ID":"2023-156H","EPOCH":"2025-12-13T02:35:42.399168","MEAN_MOTION":15.30198409,"ECCENTRICITY":6.392e-5,"INCLINATION":53.1591,"RA_OF_ASC_NODE":120.274,"ARG_OF_PERICENTER":341.6985,"MEAN_ANOMALY":18.3992,"EPHEMERIS_TYPE":0,"CLASSIFICATION_TYPE":"U","NORAD_CAT_ID":58035,"ELEMENT_SET_NO":999,"REV_AT_EPOCH":12301,"BSTAR":-3.3926163e-5,"MEAN_MOTION_DOT":-1.363e-5,"MEAN_MOTION_DDOT":0},{"OBJECT_NAME":"STARLINK-30437","OBJECT_ID":"2023-156J","EPOCH":"2025-12-12T18:57:32.170752","MEAN_MOTION":15.30248689,"ECCENTRICITY":0.00012882,"INCLINATION":53.1607,"RA_OF_ASC_NODE":121.838,"ARG_OF_PERICENTER":77.8978,"MEAN_ANOMALY":282.2167,"EPHEMERIS_TYPE":0,"CLASSIFICATION_TYPE":"U","NORAD_CAT_ID":58036,"ELEMENT_SET_NO":999,"REV_AT_EPOCH":12296,"BSTAR":0.00030575136,"MEAN_MOTION_DOT":8.72e-5,"MEAN_MOTION_DDOT":0},{"OBJECT_NAME":"STARLINK-30533","OBJECT_ID":"2023-156K","EPOCH":"2025-12-13T00:37:02.354880","MEAN_MOTION":15.30204792,"ECCENTRICITY":0.00012947,"INCLINATION":53.1594,"RA_OF_ASC_NODE":210.7497,"ARG_OF_PERICENTER":80.5975,"MEAN_ANOMALY":279.5172,"EPHEMERIS_TYPE":0,"CLASSIFICATION_TYPE":"U","NORAD_CAT_ID":58037,"ELEMENT_SET_NO":999,"REV_AT_EPOCH":12176,"BSTAR":0.0015449313,"MEAN_MOTION_DOT":0.00045686,"MEAN_MOTION_DDOT":0},{"OBJECT_NAME":"STARLINK-30560","OBJECT_ID":"2023-156L","EPOCH":"2025-12-13T01:37:12.930528","MEAN_MOTION":15.30192323,"ECCENTRICITY":9.639e-5,"INCLINATION":53.1613,"RA_OF_ASC_NODE":117.8851,"ARG_OF_PERICENTER":62.5654,"MEAN_ANOMALY":297.5445,"EPHEMERIS_TYPE":0,"CLASSIFICATION_TYPE":"U","NORAD_CAT_ID":58038,"ELEMENT_SET_NO":999,"REV_AT_EPOCH":12304,"BSTAR":2.5927368e-5,"MEAN_MOTION_DOT":4.09e-6,"MEAN_MOTION_DDOT":0},{"OBJECT_NAME":"STARLINK-30559","OBJECT_ID":"2023-156M","EPOCH":"2025-12-13T06:00:02.000160","MEAN_MOTION":15.35017253,"ECCENTRICITY":0.00121427,"INCLINATION":53.1601,"RA_OF_ASC_NODE":218.7749,"ARG_OF_PERICENTER":151.486,"MEAN_ANOMALY":63.1907,"EPHEMERIS_TYPE":0,"CLASSIFICATION_TYPE":"U","NORAD_CAT_ID":58039,"ELEMENT_SET_NO":999,"REV_AT_EPOCH":590,"BSTAR":0.0042162315,"MEAN_MOTION_DOT":0.00148083,"MEAN_MOTION_DDOT":0}]
